NORAD_CAT_ID,OBJECT_NAME,OBJECT_TYPE,EPOCH,MEAN_MOTION,ECCENTRICITY,INCLINATION,RA_OF_ASC_NODE,ARG_OF_PERICENTER,MEAN_ANOMALY,BSTAR,MEAN_MOTION_DOT,MEAN_MOTION_DDOT,TLE_LINE0,TLE_LINE1,TLE_LINE2,SEMIMAJOR_AXIS,PERIOD,APOGEE,PERIGEE,DECAYED
49724.0,STARLINK-3219,PAYLOAD,2022-05-23 16:00:00,15.08825972,0.0002161,53.2132,251.2221,34.8899,193.6294,0.00051301,7.883e-05,0.0,0 STARLINK-3219,1 49724U 21115A   22143.66667824  .00007883  00000-0  51301-3 0  9992,2 49724  53.2132 251.2221 0002161  34.8899 193.6294 15.08825972 27404,6917.9230000000025,95.438,541.283,538.293,0.0
49724.0,STARLINK-3219,PAYLOAD,2022-05-23 22:00:01,15.08856026,0.0002118,53.2129,250.0987,34.3378,112.9271,-0.0033388,-0.00053059,0.0,0 STARLINK-3219,1 49724U 21115A   22143.91668981 -.00053059  00000-0 -33388-2 0  9997,2 49724  53.2129 250.0987 0002118  34.3378 112.9271 15.08856026  1309,6917.831,95.437,541.1619999999998,538.231,0.0
49724.0,STARLINK-3219,PAYLOAD,2022-05-24 13:14:53,15.08845274,0.0002241,53.214,247.2463,42.0649,318.0515,0.00019913,2.883e-05,0.0,0 STARLINK-3219,1 49724U 21115A   22144.55201016  .00002883  00000-0  19913-3 0  9996,2 49724  53.2140 247.2463 0002241  42.0649 318.0515 15.08845274 26426,6917.864000000001,95.437,541.28,538.179,0.0
49724.0,STARLINK-3219,PAYLOAD,2022-05-24 22:00:00,15.08871587,0.0002184,53.2135,245.609,35.2904,146.6892,-0.0037557,-0.00059619,0.0,0 STARLINK-3219,1 49724U 21115A   22144.91667824 -.00059619  00000-0 -37557-2 0  9993,2 49724  53.2135 245.6090 0002184  35.2904 146.6892 15.08871587 27590,6917.784000000002,95.436,541.16,538.138,0.0
49724.0,STARLINK-3219,PAYLOAD,2022-05-25 14:00:01,15.08850316,0.0002238,53.2141,242.6167,34.0043,171.172,-0.0013081,-0.00021053,0.0,0 STARLINK-3219,1 49724U 21115A   22145.58334491 -.00021053  00000-0 -13081-2 0  9995,2 49724  53.2141 242.6167 0002238  34.0043 171.1720 15.08850316 27691,6917.849,95.437,541.262,538.1659999999998,0.0
49724.0,STARLINK-3219,PAYLOAD,2022-05-25 17:51:50,15.08844848,0.0002113,53.2153,241.893,40.3953,319.7196,0.00011364,1.521e-05,0.0,0 STARLINK-3219,1 49724U 21115A   22145.74432970  .00001521  00000-0  11364-3 0  9993,2 49724  53.2153 241.8930 0002113  40.3953 319.7196 15.08844848 27718,6917.866,95.437,541.192,538.269,0.0
49724.0,STARLINK-3219,PAYLOAD,2022-05-26 12:56:27,15.08847071,0.0002117,53.2155,238.3242,40.6405,319.4745,4.5627e-05,4.38e-06,0.0,0 STARLINK-3219,1 49724U 21115A   22146.53920664  .00000438  00000-0  45627-4 0  9999,2 49724  53.2155 238.3242 0002117  40.6405 319.4745 15.08847071 26724,6917.859,95.437,541.188,538.259,0.0
49724.0,STARLINK-3219,PAYLOAD,2022-05-26 22:00:00,15.08834777,0.0002146,53.2146,236.6299,32.9848,218.5738,-0.0025207,-0.00040177,0.0,0 STARLINK-3219,1 49724U 21115A   22146.91667824 -.00040177  00000-0 -25207-2 0  9993,2 49724  53.2146 236.6299 0002146  32.9848 218.5738 15.08834777 27893,6917.896,95.438,541.246,538.2769999999998,0.0
49724.0,STARLINK-3219,PAYLOAD,2022-05-27 14:00:01,15.08817695,0.0002256,53.2147,233.6383,33.1713,241.5348,0.0013628,0.00021455,0.0,0 STARLINK-3219,1 49724U 21115A   22147.58334491  .00021455  00000-0  13628-2 0  9998,2 49724  53.2147 233.6383 0002256  33.1713 241.5348 15.08817695  1302,6917.949000000001,95.439,541.374,538.253,0.0
49724.0,STARLINK-3219,PAYLOAD,2022-05-27 16:00:00,15.08808737,0.0002254,53.2146,233.2643,32.3759,335.2284,0.0032092,0.00051114,0.0,0 STARLINK-3219,1 49724U 21115A   22147.66667824  .00051114  00000-0  32092-2 0  9997,2 49724  53.2146 233.2643 0002254  32.3759 335.2284 15.08808737 28008,6917.976,95.44,541.4,538.2819999999998,0.0
49724.0,STARLINK-3219,PAYLOAD,2022-05-27 22:00:01,15.08851593,0.0002131,53.2144,232.1408,33.1025,253.2432,-0.0014793,-0.00023762,0.0,0 STARLINK-3219,1 49724U 21115A   22147.91668981 -.00023762  00000-0 -14793-2 0  9998,2 49724  53.2144 232.1408 0002131  33.1025 253.2432 15.08851593  1308,6917.845,95.437,541.184,538.236,0.0
49724.0,STARLINK-3219,PAYLOAD,2022-05-28 04:41:06,15.0884156,0.0002401,53.2151,230.8902,40.2405,319.8765,5.1517e-05,5.32e-06,0.0,0 STARLINK-3219,1 49724U 21115A   22148.19521798  .00000532  00000-0  51517-4 0  9998,2 49724  53.2151 230.8902 0002401  40.2405 319.8765 15.08841560 28086,6917.876,95.437,541.4019999999998,538.08,0.0
49724.0,STARLINK-3219,PAYLOAD,2022-05-28 12:38:02,15.08842048,0.0002182,53.215,229.4032,38.3793,321.7354,7.7352e-05,9.43e-06,0.0,0 STARLINK-3219,1 49724U 21115A   22148.52641730  .00000943  00000-0  77352-4 0  9995,2 49724  53.2150 229.4032 0002182  38.3793 321.7354 15.08842048 27028,6917.874,95.437,541.249,538.23,0.0
49724.0,STARLINK-3219,PAYLOAD,2022-05-28 22:00:00,15.08872117,0.0002191,53.2139,227.6517,36.5655,284.5159,-0.0022987,-0.00036719,0.0,0 STARLINK-3219,1 49724U 21115A   22148.91667824 -.00036719  00000-0 -22987-2 0  9994,2 49724  53.2139 227.6517 0002191  36.5655 284.5159 15.08872117  1302,6917.781999999997,95.436,541.163,538.132,0.0
49724.0,STARLINK-3219,PAYLOAD,2022-05-29 06:00:02,15.08837164,0.0002043,53.214,226.1549,39.5006,293.2464,-4.2376e-05,-9.63e-06,0.0,0 STARLINK-3219,1 49724U 21115A   22149.25002315 -.00000963  00000-0 -42376-4 0  9998,2 49724  53.2140 226.1549 0002043  39.5006 293.2464 15.08837164 28243,6917.889,95.438,541.1669999999998,538.341,0.0
49724.0,STARLINK-3219,PAYLOAD,2022-05-29 14:00:01,15.08828077,0.000224,53.2137,224.6603,34.062,310.2158,-0.0010618,-0.00017142,0.0,0 STARLINK-3219,1 49724U 21115A   22149.58334491 -.00017142  00000-0 -10618-2 0  9996,2 49724  53.2137 224.6603 0002240  34.0620 310.2158 15.08828077  1305,6917.917,95.438,541.331,538.232,0.0
49724.0,STARLINK-3219,PAYLOAD,2022-05-29 22:01:09,15.088228400000002,0.0002295,53.214,223.1583,39.4508,320.6651,-7.8119e-06,-4.13e-06,0.0,0 STARLINK-3219,1 49724U 21115A   22149.91747625 -.00000413  00000-0 -78119-5 0  9996,2 49724  53.2140 223.1583 0002295  39.4508 320.6651 15.08822840 27239,6917.933000000001,95.439,541.386,538.21,0.0
49724.0,STARLINK-3219,PAYLOAD,2022-05-30 06:00:00,15.08830753,0.0002041,53.2133,221.6659,37.1104,330.3102,0.00021001,3.055e-05,0.0,0 STARLINK-3219,1 49724U 21115A   22150.25001157  .00003055  00000-0  21001-3 0  9997,2 49724  53.2133 221.6659 0002041  37.1104 330.3102 15.08830753 28393,6917.909000000002,95.438,541.186,538.362,0.0
49724.0,STARLINK-3219,PAYLOAD,2022-05-30 14:00:01,15.08809807,0.0002267,53.2131,220.1712,33.5649,345.4415,0.0022524,0.00035712,0.0,0 STARLINK-3219,1 49724U 21115A   22150.58334491  .00035712  00000-0  22524-2 0  9998,2 49724  53.2131 220.1712 0002267  33.5649 345.4415 15.08809807  1301,6917.973000000001,95.439,541.406,538.269,0.0
49724.0,STARLINK-3219,PAYLOAD,2022-05-30 21:51:56,15.08832936,0.0002264,53.2152,218.6975,38.834,321.2815,1.8186e-05,1e-08,0.0,0 STARLINK-3219,1 49724U 21115A   22150.91107324  .00000001  00000-0  18186-4 0  9992,2 49724  53.2152 218.6975 0002264  38.8340 321.2815 15.08832936 27381,6917.901999999999,95.438,541.3330000000002,538.201,0.0
49724.0,STARLINK-3219,PAYLOAD,2022-05-31 06:00:02,15.08848135,0.0002135,53.2128,217.1768,37.5166,4.7083,-0.00041186,-6.839e-05,0.0,0 STARLINK-3219,1 49724U 21115A   22151.25002315 -.00006839  00000-0 -41186-3 0  9996,2 49724  53.2128 217.1768 0002135  37.5166   4.7083 15.08848135 28544,6917.856,95.437,541.197,538.244,0.0
49724.0,STARLINK-3219,PAYLOAD,2022-05-31 22:00:00,15.08850803,0.0002224,53.2127,214.1838,35.5329,29.8343,-0.00010587,-1.973e-05,0.0,0 STARLINK-3219,1 49724U 21115A   22151.91667824 -.00001973  00000-0 -10587-3 0  9996,2 49724  53.2127 214.1838 0002224  35.5329  29.8343 15.08850803  1303,6917.847,95.437,541.251,538.174,0.0
49724.0,STARLINK-3219,PAYLOAD,2022-06-01 06:00:00,15.08870437,0.0002238,53.2128,212.6873,37.4264,39.5405,-0.00098184,-0.00015894,0.0,0 STARLINK-3219,1 49724U 21115A   22152.25001157 -.00015894  00000-0 -98184-3 0  9991,2 49724  53.2128 212.6873 0002238  37.4264  39.5405 15.08870437 28693,6917.7869999999975,95.436,541.201,538.104,0.0
49724.0,STARLINK-3219,PAYLOAD,2022-06-01 20:00:01,15.08852257,0.0002311,53.2127,210.0687,32.9251,334.3656,-0.0019466,-0.00031147,0.0,0 STARLINK-3219,1 49724U 21115A   22152.83334491 -.00031147  00000-0 -19466-2 0  9999,2 49724  53.2127 210.0687 0002311  32.9251 334.3656 15.08852257  1308,6917.843000000003,95.437,541.307,538.109,0.0
49724.0,STARLINK-3219,PAYLOAD,2022-06-03 03:45:49,15.08845737,0.0002309,53.2144,204.1266,40.8006,319.3158,6.0445e-06,-1.92e-06,0.0,0 STARLINK-3219,1 49724U 21115A   22154.15682290 -.00000192  00000-0  60445-5 0  9990,2 49724  53.2144 204.1266 0002309  40.8006 319.3158 15.08845737 28985,6917.863,95.437,541.325,538.131,0.0
49724.0,STARLINK-3219,PAYLOAD,2022-06-03 11:42:45,15.08839338,0.0002313,53.2147,202.6396,39.348,320.768,-6.0606e-05,-1.253e-05,0.0,0 STARLINK-3219,1 49724U 21115A   22154.48802812 -.00001253  00000-0 -60606-4 0  9998,2 49724  53.2147 202.6396 0002313  39.3480 320.7680 15.08839338 29032,6917.882,95.438,541.3480000000002,538.1469999999998,0.0
49724.0,STARLINK-3219,PAYLOAD,2022-06-03 13:18:09,15.08835153,0.0002309,53.2144,202.3425,39.848,320.2681,-8.285200000000001e-05,-1.607e-05,0.0,0 STARLINK-3219,1 49724U 21115A   22154.55427141 -.00001607  00000-0 -82852-4 0  9994,2 49724  53.2144 202.3425 0002309  39.8480 320.2681 15.08835153 27933,6917.895,95.438,541.3580000000002,538.163,0.0
49724.0,STARLINK-3219,PAYLOAD,2022-06-04 09:58:09,15.08841031,0.0002306,53.2145,198.4761,35.3863,324.7282,5.1719e-05,5.35e-06,0.0,0 STARLINK-3219,1 49724U 21115A   22155.41538414  .00000535  00000-0  51719-4 0  9991,2 49724  53.2145 198.4761 0002306  35.3863 324.7282 15.08841031 28068,6917.877,95.437,541.3380000000002,538.1469999999998,0.0
49724.0,STARLINK-3219,PAYLOAD,2022-06-05 22:00:00,15.08809393,0.000227,53.2126,191.7363,39.8332,199.4922,0.0019968,0.00031608,0.0,0 STARLINK-3219,1 49724U 21115A   22156.91667824  .00031608  00000-0  19968-2 0  9998,2 49724  53.2126 191.7363 0002270  39.8332 199.4922 15.08809393 29403,6917.974,95.439,541.409,538.269,0.0
